[{"OBJECT_NAME":"SL-14 R/B","OBJECT_ID":"1986-006B","EPOCH":"2026-03-28T21:39:41.672160","MEAN_MOTION":14.86845296,"ECCENTRICITY":0.0075808,"INCLINATION":82.5252,"RA_OF_ASC_NODE":241.6503,"ARG_OF_PERICENTER":208.0548,"MEAN_ANOMALY":151.6575,"EPHEMERIS_TYPE":0,"CLASSIFICATION_TYPE":"U","NORAD_CAT_ID":16496,"ELEMENT_SET_NO":999,"REV_AT_EPOCH":15206,"BSTAR":0.00010784,"MEAN_MOTION_DOT":1.039e-5,"MEAN_MOTION_DDOT":0},{"OBJECT_NAME":"COSMOS 1743","OBJECT_ID":"1986-034A","EPOCH":"2026-03-29T03:37:01.255008","MEAN_MOTION":15.60157072,"ECCENTRICITY":0.000443,"INCLINATION":82.53,"RA_OF_ASC_NODE":53.38,"ARG_OF_PERICENTER":170.3258,"MEAN_ANOMALY":189.8085,"EPHEMERIS_TYPE":0,"CLASSIFICATION_TYPE":"U","NORAD_CAT_ID":16719,"ELEMENT_SET_NO":999,"REV_AT_EPOCH":18328,"BSTAR":0.00064009,"MEAN_MOTION_DOT":0.00052286,"MEAN_MOTION_DDOT":0},{"OBJECT_NAME":"SL-14 R/B","OBJECT_ID":"1986-046B","EPOCH":"2026-03-29T04:55:53.053824","MEAN_MOTION":14.85609535,"ECCENTRICITY":0.0023577,"INCLINATION":82.4803,"RA_OF_ASC_NODE":61.737,"ARG_OF_PERICENTER":159.8806,"MEAN_ANOMALY":200.3345,"EPHEMERIS_TYPE":0,"CLASSIFICATION_TYPE":"U","NORAD_CAT_ID":16792,"ELEMENT_SET_NO":999,"REV_AT_EPOCH":12930,"BSTAR":7.0824e-5,"MEAN_MOTION_DOT":6.4e-6,"MEAN_MOTION_DDOT":0},{"OBJECT_NAME":"SL-14 R/B","OBJECT_ID":"1986-055B","EPOCH":"2026-03-29T03:12:17.925120","MEAN_MOTION":14.85659607,"ECCENTRICITY":0.00173,"INCLINATION":82.517,"RA_OF_ASC_NODE":108.3936,"ARG_OF_PERICENTER":267.6788,"MEAN_ANOMALY":156.6193,"EPHEMERIS_TYPE":0,"CLASSIFICATION_TYPE":"U","NORAD_CAT_ID":16882,"ELEMENT_SET_NO":999,"REV_AT_EPOCH":12225,"BSTAR":5.4121e-5,"MEAN_MOTION_DOT":4.94e-6,"MEAN_MOTION_DDOT":0},{"OBJECT_NAME":"AJISAI (EGS)","OBJECT_ID":"1986-061A","EPOCH":"2026-03-29T03:55:27.715008","MEAN_MOTION":12.44515638,"ECCENTRICITY":0.0011333,"INCLINATION":50.0113,"RA_OF_ASC_NODE":33.4644,"ARG_OF_PERICENTER":337.1729,"MEAN_ANOMALY":153.7726,"EPHEMERIS_TYPE":0,"CLASSIFICATION_TYPE":"U","NORAD_CAT_ID":16908,"ELEMENT_SET_NO":999,"REV_AT_EPOCH":47042,"BSTAR":-2.4652e-5,"MEAN_MOTION_DOT":-1.01e-6,"MEAN_MOTION_DDOT":0},{"OBJECT_NAME":"SL-14 R/B","OBJECT_ID":"1987-024B","EPOCH":"2026-03-29T05:33:44.095968","MEAN_MOTION":14.86151061,"ECCENTRICITY":0.0017848,"INCLINATION":82.5253,"RA_OF_ASC_NODE":74.3906,"ARG_OF_PERICENTER":191.1595,"MEAN_ANOMALY":168.9228,"EPHEMERIS_TYPE":0,"CLASSIFICATION_TYPE":"U","NORAD_CAT_ID":17567,"ELEMENT_SET_NO":999,"REV_AT_EPOCH":9103,"BSTAR":6.99e-5,"MEAN_MOTION_DOT":6.39e-6,"MEAN_MOTION_DDOT":0},{"OBJECT_NAME":"COSMOS 1833","OBJECT_ID":"1987-027A","EPOCH":"2026-03-28T23:21:52.558272","MEAN_MOTION":14.13047409,"ECCENTRICITY":0.0023271,"INCLINATION":70.9171,"RA_OF_ASC_NODE":285.4866,"ARG_OF_PERICENTER":186.1436,"MEAN_ANOMALY":173.9403,"EPHEMERIS_TYPE":0,"CLASSIFICATION_TYPE":"U","NORAD_CAT_ID":17589,"ELEMENT_SET_NO":999,"REV_AT_EPOCH":1304,"BSTAR":-0.0001222,"MEAN_MOTION_DOT":-2.77e-6,"MEAN_MOTION_DDOT":0},{"OBJECT_NAME":"SL-16 R/B","OBJECT_ID":"1987-027B","EPOCH":"2026-03-29T04:09:58.359168","MEAN_MOTION":14.17165805,"ECCENTRICITY":0.0002861,"INCLINATION":71.0015,"RA_OF_ASC_NODE":235.4335,"ARG_OF_PERICENTER":94.8825,"MEAN_ANOMALY":265.2626,"EPHEMERIS_TYPE":0,"CLASSIFICATION_TYPE":"U","NORAD_CAT_ID":17590,"ELEMENT_SET_NO":999,"REV_AT_EPOCH":1810,"BSTAR":3.6939e-5,"MEAN_MOTION_DOT":2.7e-7,"MEAN_MOTION_DDOT":0},{"OBJECT_NAME":"SL-14 R/B","OBJECT_ID":"1987-038B","EPOCH":"2026-03-29T00:49:55.654752","MEAN_MOTION":14.85386588,"ECCENTRICITY":0.0020744,"INCLINATION":82.4978,"RA_OF_ASC_NODE":278.5786,"ARG_OF_PERICENTER":100.0169,"MEAN_ANOMALY":260.3389,"EPHEMERIS_TYPE":0,"CLASSIFICATION_TYPE":"U","NORAD_CAT_ID":17912,"ELEMENT_SET_NO":999,"REV_AT_EPOCH":8210,"BSTAR":5.8446e-5,"MEAN_MOTION_DOT":5.29e-6,"MEAN_MOTION_DDOT":0},{"OBJECT_NAME":"COSMOS 1844","OBJECT_ID":"1987-041A","EPOCH":"2026-03-29T03:06:37.991232","MEAN_MOTION":14.14556844,"ECCENTRICITY":0.0031059,"INCLINATION":70.9015,"RA_OF_ASC_NODE":353.1735,"ARG_OF_PERICENTER":349.4845,"MEAN_ANOMALY":10.5623,"EPHEMERIS_TYPE":0,"CLASSIFICATION_TYPE":"U","NORAD_CAT_ID":17973,"ELEMENT_SET_NO":999,"REV_AT_EPOCH":633,"BSTAR":0.00022521,"MEAN_MOTION_DOT":3.86e-6,"MEAN_MOTION_DDOT":0},{"OBJECT_NAME":"SL-14 R/B","OBJECT_ID":"1987-055B","EPOCH":"2026-03-29T03:25:39.839808","MEAN_MOTION":14.85648523,"ECCENTRICITY":0.0019504,"INCLINATION":82.5007,"RA_OF_ASC_NODE":330.7001,"ARG_OF_PERICENTER":312.3764,"MEAN_ANOMALY":47.58,"EPHEMERIS_TYPE":0,"CLASSIFICATION_TYPE":"U","NORAD_CAT_ID":18153,"ELEMENT_SET_NO":999,"REV_AT_EPOCH":7282,"BSTAR":5.0937e-5,"MEAN_MOTION_DOT":4.66e-6,"MEAN_MOTION_DDOT":0},{"OBJECT_NAME":"COSMOS 1867","OBJECT_ID":"1987-060A","EPOCH":"2026-03-29T03:24:46.748736","MEAN_MOTION":14.31506077,"ECCENTRICITY":0.001482,"INCLINATION":65.0094,"RA_OF_ASC_NODE":252.2256,"ARG_OF_PERICENTER":279.8116,"MEAN_ANOMALY":80.1295,"EPHEMERIS_TYPE":0,"CLASSIFICATION_TYPE":"U","NORAD_CAT_ID":18187,"ELEMENT_SET_NO":999,"REV_AT_EPOCH":2272,"BSTAR":3.5913e-5,"MEAN_MOTION_DOT":-5.0e-8,"MEAN_MOTION_DDOT":0},{"OBJECT_NAME":"SL-14 R/B","OBJECT_ID":"1988-001B","EPOCH":"2026-03-29T04:57:55.248480","MEAN_MOTION":14.85549474,"ECCENTRICITY":0.0018365,"INCLINATION":82.516,"RA_OF_ASC_NODE":177.0095,"ARG_OF_PERICENTER":169.2686,"MEAN_ANOMALY":190.8926,"EPHEMERIS_TYPE":0,"CLASSIFICATION_TYPE":"U","NORAD_CAT_ID":18749,"ELEMENT_SET_NO":999,"REV_AT_EPOCH":4492,"BSTAR":6.6317e-5,"MEAN_MOTION_DOT":5.99e-6,"MEAN_MOTION_DDOT":0},{"OBJECT_NAME":"COSMOS 1933","OBJECT_ID":"1988-020A","EPOCH":"2026-03-29T02:28:35.202144","MEAN_MOTION":15.18164162,"ECCENTRICITY":0.0005195,"INCLINATION":82.5121,"RA_OF_ASC_NODE":231.6996,"ARG_OF_PERICENTER":123.6688,"MEAN_ANOMALY":236.5042,"EPHEMERIS_TYPE":0,"CLASSIFICATION_TYPE":"U","NORAD_CAT_ID":18958,"ELEMENT_SET_NO":999,"REV_AT_EPOCH":5317,"BSTAR":0.00024888,"MEAN_MOTION_DOT":5.114e-5,"MEAN_MOTION_DDOT":0},{"OBJECT_NAME":"SL-3 R/B","OBJECT_ID":"1988-032B","EPOCH":"2026-03-29T05:14:37.471200","MEAN_MOTION":15.2012233,"ECCENTRICITY":0.0026388,"INCLINATION":97.521,"RA_OF_ASC_NODE":71.4064,"ARG_OF_PERICENTER":161.9422,"MEAN_ANOMALY":198.2756,"EPHEMERIS_TYPE":0,"CLASSIFICATION_TYPE":"U","NORAD_CAT_ID":19046,"ELEMENT_SET_NO":999,"REV_AT_EPOCH":5507,"BSTAR":0.00032173,"MEAN_MOTION_DOT":6.949e-5,"MEAN_MOTION_DDOT":0},{"OBJECT_NAME":"SL-16 R/B","OBJECT_ID":"1988-039B","EPOCH":"2026-03-29T05:11:53.792448","MEAN_MOTION":14.19619295,"ECCENTRICITY":0.0023671,"INCLINATION":71.0168,"RA_OF_ASC_NODE":27.2567,"ARG_OF_PERICENTER":306.3782,"MEAN_ANOMALY":53.5159,"EPHEMERIS_TYPE":0,"CLASSIFICATION_TYPE":"U","NORAD_CAT_ID":19120,"ELEMENT_SET_NO":999,"REV_AT_EPOCH":96115,"BSTAR":0.00011178,"MEAN_MOTION_DOT":1.89e-6,"MEAN_MOTION_DDOT":0},{"OBJECT_NAME":"COSMOS 1953","OBJECT_ID":"1988-050A","EPOCH":"2026-03-29T04:44:29.248800","MEAN_MOTION":15.28825905,"ECCENTRICITY":0.0012318,"INCLINATION":82.5084,"RA_OF_ASC_NODE":138.6237,"ARG_OF_PERICENTER":61.7947,"MEAN_ANOMALY":298.4535,"EPHEMERIS_TYPE":0,"CLASSIFICATION_TYPE":"U","NORAD_CAT_ID":19210,"ELEMENT_SET_NO":999,"REV_AT_EPOCH":4076,"BSTAR":0.0003244,"MEAN_MOTION_DOT":9.138e-5,"MEAN_MOTION_DDOT":0}]
