SL-14 R/B               
1 16496U 86006B   26087.90256565  .00001039  00000+0  10784-3 0  9992
2 16496  82.5252 241.6503 0075808 208.0548 151.6575 14.86845296152065
COSMOS 1743             
1 16719U 86034A   26088.15070897  .00052286  00000+0  64009-3 0  9990
2 16719  82.5300  53.3800 0004430 170.3258 189.8085 15.60157072183285
SL-14 R/B               
1 16792U 86046B   26088.20547516  .00000640  00000+0  70824-4 0  9997
2 16792  82.4803  61.7370 0023577 159.8806 200.3345 14.85609535129305
SL-14 R/B               
1 16882U 86055B   26088.13354080  .00000494  00000+0  54121-4 0  9990
2 16882  82.5170 108.3936 0017300 267.6788 156.6193 14.85659607122259
AJISAI (EGS)            
1 16908U 86061A   26088.16351522 -.00000101  00000+0 -24652-4 0  9990
2 16908  50.0113  33.4644 0011333 337.1729 153.7726 12.44515638470420
SL-14 R/B               
1 17567U 87024B   26088.23176037  .00000639  00000+0  69900-4 0  9995
2 17567  82.5253  74.3906 0017848 191.1595 168.9228 14.86151061 91033
COSMOS 1833             
1 17589U 87027A   26087.97352498 -.00000277  00000+0 -12220-3 0  9991
2 17589  70.9171 285.4866 0023271 186.1436 173.9403 14.13047409 13048
SL-16 R/B               
1 17590U 87027B   26088.17359212  .00000027  00000+0  36939-4 0  9992
2 17590  71.0015 235.4335 0002861  94.8825 265.2626 14.17165805 18103
SL-14 R/B               
1 17912U 87038B   26088.03467193  .00000529  00000+0  58446-4 0  9999
2 17912  82.4978 278.5786 0020744 100.0169 260.3389 14.85386588 82105
COSMOS 1844             
1 17973U 87041A   26088.12960638  .00000386  00000+0  22521-3 0  9997
2 17973  70.9015 353.1735 0031059 349.4845  10.5623 14.14556844  6334
SL-14 R/B               
1 18153U 87055B   26088.14282222  .00000466  00000+0  50937-4 0  9993
2 18153  82.5007 330.7001 0019504 312.3764  47.5800 14.85648523 72820
COSMOS 1867             
1 18187U 87060A   26088.14220774 -.00000005  00000+0  35913-4 0  9997
2 18187  65.0094 252.2256 0014820 279.8116  80.1295 14.31506077 22726
SL-14 R/B               
1 18749U 88001B   26088.20688945  .00000599  00000+0  66317-4 0  9991
2 18749  82.5160 177.0095 0018365 169.2686 190.8926 14.85549474 44928
COSMOS 1933             
1 18958U 88020A   26088.10318521  .00005114  00000+0  24888-3 0  9997
2 18958  82.5121 231.6996 0005195 123.6688 236.5042 15.18164162 53175
SL-3 R/B                
1 19046U 88032B   26088.21848925  .00006949  00000+0  32173-3 0  9990
2 19046  97.5210  71.4064 0026388 161.9422 198.2756 15.20122330 55074
SL-16 R/B               
1 19120U 88039B   26088.21659482  .00000189  00000+0  11178-3 0  9990
2 19120  71.0168  27.2567 0023671 306.3782  53.5159 14.19619295961152
COSMOS 1953             
1 19210U 88050A   26088.19756075  .00009138  00000+0  32440-3 0  9994
2 19210  82.5084 138.6237 0012318  61.7947 298.4535 15.28825905 40769
